APRIZESAT 2             
1 28366U 04025A   26171.41582627  .00000121  00000+0  50952-4 0  9996
2 28366  98.1018 337.2134 0104426 239.9872 119.0923 14.38036809152100
SAUDICOMSAT 1           
1 28369U 04025D   26171.45354760  .00000267  00000+0  72374-4 0  9991
2 28369  98.5770 181.6730 0032440  15.8231 344.3971 14.55475929164604
SAUDICOMSAT 2           
1 28370U 04025E   26171.02338582  .00000164  00000+0  54375-4 0  9997
2 28370  98.6640 183.3499 0054236 250.7204 108.8117 14.49982524160519
APRIZESAT 1             
1 28372U 04025G   26170.98264002  .00000172  00000+0  54385-4 0  9998
2 28372  98.6302 181.7843 0045256 145.4838 214.9309 14.51778242162311
NANOSAT-1               
1 28493U 04049B   26171.34633970  .00000741  00000+0  10490-3 0  9993
2 28493  98.2281 308.0845 0002736 287.9038  72.1875 14.80164628155912
SAUDICOMSAT 7           
1 31119U 07012C   26171.38870382  .00000320  00000+0  66514-4 0  9991
2 31119  98.3778 145.5859 0055526 185.1036 174.9608 14.66112576 22900
SAUDICOMSAT 6           
1 31121U 07012E   26171.44252921  .00000420  00000+0  90139-4 0  9995
2 31121  98.4099 139.0195 0070869 317.5249  42.0481 14.62561600 20662
SAUDICOMSAT 5           
1 31124U 07012H   26171.42583889  .00000490  00000+0  92918-4 0  9990
2 31124  98.3490 146.3702 0048603 114.7548 245.8725 14.68159799 24075
SAUDICOMSAT 3           
1 31125U 07012J   26171.44881699  .00000653  00000+0  11458-3 0  9993
2 31125  98.3144 146.9417 0040076  43.2109 317.2229 14.70710395 25304
SAUDICOMSAT 4           
1 31127U 07012L   26171.43413678  .00000324  00000+0  69416-4 0  9995
2 31127  98.3984 144.0709 0062131 247.8695 111.5904 14.64514785 21768
APRIZESAT 4             
1 35684U 09041D   26170.75201161  .00000445  00000+0  59830-4 0  9990
2 35684  98.1412 246.1237 0042243 314.5541  45.2225 14.83882094911745
APRIZESAT 3             
1 35686U 09041F   26171.37583324  .00001553  00000+0  13805-3 0  9997
2 35686  98.2069 324.7522 0062797  57.4441 303.2823 14.96251370916853
S-NET D                 
1 43186U 18014G   26171.29880828  .00004087  00000+0  21192-3 0  9994
2 43186  97.5356  76.0698 0008631  20.4965 339.6613 15.16696846459235
S-NET B                 
1 43187U 18014H   26171.44227345  .00003824  00000+0  19866-3 0  9994
2 43187  97.5362  76.1989 0009101  14.9277 345.2223 15.16668142459254
S-NET A                 
1 43188U 18014J   26171.29766920  .00004140  00000+0  21459-3 0  9998
2 43188  97.5373  76.2647 0008975  16.0073 344.1441 15.16704943459232
S-NET C                 
1 43189U 18014K   26171.31421336  .00003742  00000+0  19448-3 0  9993
2 43189  97.5390  76.3562 0010128   7.5265 352.6118 15.16659336457788
SALSAT                  
1 46495U 20068K   26170.95810387  .00006379  00000+0  22355-3 0  9995
2 46495  97.8854 174.1914 0007892 296.5001  63.5428 15.29832652315782
OOV-CUBE (TUBSAT-30)    
1 60240U 24128F   26171.44894970  .00001277  00000+0  10887-3 0  9994
2 60240  61.9929 214.1994 0044227 134.4761 225.9960 15.02783719106604
LPNTSAT-001 (IOD-1)     
1 68408U 26065A   26170.91022944  .00002068  00000+0  10310-3 0  9995
2 68408  97.4012  51.3621 0016389   1.3346 358.7929 15.18549663 12670
